start=new Date('2022-01-06T00:00:00.000Z').valueOf();
sats=[{"TLE_LINE1":"1 46753U 20074Q   22005.34467590  .00002900  00000-0  21356-3 0  9996","DECAY_DATE":null,"TLE_LINE2":"2 46753  53.0549 324.6628 0002116  84.1499 275.9732 15.06387258 66922","GP_ID":"193252145","SEMIMAJOR_AXIS":"6925.388","MEAN_MOTION_DDOT":"0.0000000000000","FILE":"3264673","ECCENTRICITY":"0.00021160","OBJECT_TYPE":"PAYLOAD","EPOCH":"2022-01-05T08:16:19.997760","ELEMENT_SET_NO":"999","MEAN_ANOMALY":"275.9732","NORAD_CAT_ID":"46753","TIME_SYSTEM":"UTC","EPHEMERIS_TYPE":"0","PERIOD":"95.593","COUNTRY_CODE":"US","CLASSIFICATION_TYPE":"U","REF_FRAME":"TEME","CENTER_NAME":"EARTH","BSTAR":"0.00021356000000","APOAPSIS":"548.718","SITE":"AFETR","ARG_OF_PERICENTER":"84.1499","MEAN_MOTION":"15.06387258","RA_OF_ASC_NODE":"324.6628","PERIAPSIS":"545.787","INCLINATION":"53.0549","RCS_SIZE":"LARGE","MEAN_ELEMENT_THEORY":"SGP4","REV_AT_EPOCH":"6692","MEAN_MOTION_DOT":"0.00002900","OBJECT_NAME":"STARLINK-1922","OBJECT_ID":"2020-074Q","LAUNCH_DATE":"2020-10-24"},{"RA_OF_ASC_NODE":"322.2500","PERIAPSIS":"545.856","INCLINATION":"53.0555","RCS_SIZE":"LARGE","SITE":"AFETR","APOAPSIS":"548.598","ARG_OF_PERICENTER":"63.8194","MEAN_MOTION":"15.06395615","BSTAR":"0.00003859800000","REF_FRAME":"TEME","CENTER_NAME":"EARTH","LAUNCH_DATE":"2020-10-24","OBJECT_NAME":"STARLINK-1923","OBJECT_ID":"2020-074R","REV_AT_EPOCH":"6700","MEAN_MOTION_DOT":"0.00000293","MEAN_ELEMENT_THEORY":"SGP4","ELEMENT_SET_NO":"999","FILE":"3265018","ECCENTRICITY":"0.00019790","OBJECT_TYPE":"PAYLOAD","EPOCH":"2022-01-05T21:11:15.308448","DECAY_DATE":null,"TLE_LINE2":"2 46754  53.0555 322.2500 0001979  63.8194 296.2999 15.06395615 67002","GP_ID":"193285523","SEMIMAJOR_AXIS":"6925.362","MEAN_MOTION_DDOT":"0.0000000000000","TLE_LINE1":"1 46754U 20074R   22005.88281607  .00000293  00000-0  38598-4 0  9999","CLASSIFICATION_TYPE":"U","EPHEMERIS_TYPE":"0","PERIOD":"95.592","COUNTRY_CODE":"US","MEAN_ANOMALY":"296.2999","NORAD_CAT_ID":"46754","TIME_SYSTEM":"UTC"},{"COUNTRY_CODE":"US","PERIOD":"95.592","EPHEMERIS_TYPE":"0","CLASSIFICATION_TYPE":"U","TIME_SYSTEM":"UTC","NORAD_CAT_ID":"46755","MEAN_ANOMALY":"298.3841","EPOCH":"2022-01-05T21:18:33.035040","OBJECT_TYPE":"PAYLOAD","FILE":"3265018","ECCENTRICITY":"0.00017160","ELEMENT_SET_NO":"999","TLE_LINE1":"1 46755U 20074S   22005.88788235  .00000501  00000-0  52544-4 0  9998","SEMIMAJOR_AXIS":"6925.352","GP_ID":"193285742","MEAN_MOTION_DDOT":"0.0000000000000","TLE_LINE2":"2 46755  53.0550 327.2309 0001716  61.7321 298.3841 15.06398945 66937","DECAY_DATE":null,"OBJECT_ID":"2020-074S","OBJECT_NAME":"STARLINK-1924","LAUNCH_DATE":"2020-10-24","MEAN_ELEMENT_THEORY":"SGP4","MEAN_MOTION_DOT":"0.00000501","REV_AT_EPOCH":"6693","MEAN_MOTION":"15.06398945","ARG_OF_PERICENTER":"61.7321","SITE":"AFETR","APOAPSIS":"548.405","RCS_SIZE":"LARGE","INCLINATION":"53.0550","RA_OF_ASC_NODE":"327.2309","PERIAPSIS":"546.028","CENTER_NAME":"EARTH","REF_FRAME":"TEME","BSTAR":"0.00005254400000"},{"EPHEMERIS_TYPE":"0","COUNTRY_CODE":"US","PERIOD":"95.592","CLASSIFICATION_TYPE":"U","NORAD_CAT_ID":"46756","MEAN_ANOMALY":"288.4738","TIME_SYSTEM":"UTC","FILE":"3265018","ECCENTRICITY":"0.00017320","OBJECT_TYPE":"PAYLOAD","EPOCH":"2022-01-05T21:06:34.734816","ELEMENT_SET_NO":"999","TLE_LINE1":"1 46756U 20074T   22005.87956869  .00000953  00000-0  82907-4 0  9995","TLE_LINE2":"2 46756  53.0572 327.2636 0001732  71.6439 288.4738 15.06398734 66934","DECAY_DATE":null,"SEMIMAJOR_AXIS":"6925.352","GP_ID":"193284525","MEAN_MOTION_DDOT":"0.0000000000000","OBJECT_ID":"2020-074T","OBJECT_NAME":"STARLINK-1925","LAUNCH_DATE":"2020-10-24","MEAN_ELEMENT_THEORY":"SGP4","MEAN_MOTION_DOT":"0.00000953","REV_AT_EPOCH":"6693","SITE":"AFETR","APOAPSIS":"548.417","MEAN_MOTION":"15.06398734","ARG_OF_PERICENTER":"71.6439","INCLINATION":"53.0572","RA_OF_ASC_NODE":"327.2636","PERIAPSIS":"546.018","RCS_SIZE":"LARGE","REF_FRAME":"TEME","CENTER_NAME":"EARTH","BSTAR":"0.00008290700000"},{"CENTER_NAME":"EARTH","REF_FRAME":"TEME","BSTAR":"0.00011316000000","ARG_OF_PERICENTER":"63.4876","MEAN_MOTION":"15.06397727","APOAPSIS":"548.453","SITE":"AFETR","RCS_SIZE":"LARGE","RA_OF_ASC_NODE":"329.8297","PERIAPSIS":"545.989","INCLINATION":"53.0563","MEAN_ELEMENT_THEORY":"SGP4","REV_AT_EPOCH":"6684","MEAN_MOTION_DOT":"0.00001404","OBJECT_NAME":"STARLINK-1926","OBJECT_ID":"2020-074U","LAUNCH_DATE":"2020-10-24","TLE_LINE1":"1 46757U 20074U   22005.31192905  .00001404  00000-0  11316-3 0  9995","GP_ID":"193252645","MEAN_MOTION_DDOT":"0.0000000000000","SEMIMAJOR_AXIS":"6925.356","DECAY_DATE":null,"TLE_LINE2":"2 46757  53.0563 329.8297 0001779  63.4876 296.6295 15.06397727 66841","OBJECT_TYPE":"PAYLOAD","EPOCH":"2022-01-05T07:29:10.669920","ECCENTRICITY":"0.00017790","FILE":"3264673","ELEMENT_SET_NO":"999","TIME_SYSTEM":"UTC","MEAN_ANOMALY":"296.6295","NORAD_CAT_ID":"46757","PERIOD":"95.592","COUNTRY_CODE":"US","EPHEMERIS_TYPE":"0","CLASSIFICATION_TYPE":"U"},{"TIME_SYSTEM":"UTC","NORAD_CAT_ID":"46758","MEAN_ANOMALY":"301.9472","CLASSIFICATION_TYPE":"U","COUNTRY_CODE":"US","PERIOD":"95.592","EPHEMERIS_TYPE":"0","GP_ID":"193252895","MEAN_MOTION_DDOT":"0.0000000000000","SEMIMAJOR_AXIS":"6925.344","TLE_LINE2":"2 46758  53.0544 330.0054 0001839  58.1696 301.9472 15.06401355 66844","DECAY_DATE":null,"TLE_LINE1":"1 46758U 20074V   22005.27232895  .00000405  00000-0  46122-4 0  9998","ELEMENT_SET_NO":"999","EPOCH":"2022-01-05T06:32:09.221280","OBJECT_TYPE":"PAYLOAD","ECCENTRICITY":"0.00018390","FILE":"3264673","MEAN_MOTION_DOT":"0.00000405","REV_AT_EPOCH":"6684","MEAN_ELEMENT_THEORY":"SGP4","LAUNCH_DATE":"2020-10-24","OBJECT_ID":"2020-074V","OBJECT_NAME":"STARLINK-1928","BSTAR":"0.00004612200000","CENTER_NAME":"EARTH","REF_FRAME":"TEME","RCS_SIZE":"LARGE","INCLINATION":"53.0544","PERIAPSIS":"545.936","RA_OF_ASC_NODE":"330.0054","MEAN_MOTION":"15.06401355","ARG_OF_PERICENTER":"58.1696","APOAPSIS":"548.483","SITE":"AFETR"},{"MEAN_MOTION_DOT":"0.00000196","REV_AT_EPOCH":"6670","MEAN_ELEMENT_THEORY":"SGP4","LAUNCH_DATE":"2020-10-24","OBJECT_ID":"2020-074W","OBJECT_NAME":"STARLINK-1833","BSTAR":"0.00003206300000","CENTER_NAME":"EARTH","REF_FRAME":"TEME","RCS_SIZE":"LARGE","INCLINATION":"53.0566","PERIAPSIS":"545.987","RA_OF_ASC_NODE":"339.7085","MEAN_MOTION":"15.06399079","ARG_OF_PERICENTER":"67.6713","SITE":"AFETR","APOAPSIS":"548.446","TIME_SYSTEM":"UTC","NORAD_CAT_ID":"46759","MEAN_ANOMALY":"292.4464","CLASSIFICATION_TYPE":"U","COUNTRY_CODE":"US","PERIOD":"95.592","EPHEMERIS_TYPE":"0","SEMIMAJOR_AXIS":"6925.351","GP_ID":"193253647","MEAN_MOTION_DDOT":"0.0000000000000","TLE_LINE2":"2 46759  53.0566 339.7085 0001775  67.6713 292.4464 15.06399079 66702","DECAY_DATE":null,"TLE_LINE1":"1 46759U 20074W   22005.33406989  .00000196  00000-0  32063-4 0  9999","ELEMENT_SET_NO":"999","EPOCH":"2022-01-05T08:01:03.638496","OBJECT_TYPE":"PAYLOAD","ECCENTRICITY":"0.00017750","FILE":"3264673"},{"TLE_LINE1":"1 46760U 20074X   22005.94225108 -.00001317  00000-0 -69531-4 0  9998","DECAY_DATE":null,"TLE_LINE2":"2 46760  53.0542 336.9826 0002025  62.0613 298.0581 15.06401429 66803","GP_ID":"193285025","SEMIMAJOR_AXIS":"6925.344","MEAN_MOTION_DDOT":"0.0000000000000","ECCENTRICITY":"0.00020250","FILE":"3265018","OBJECT_TYPE":"PAYLOAD","EPOCH":"2022-01-05T22:36:50.493312","ELEMENT_SET_NO":"999","MEAN_ANOMALY":"298.0581","NORAD_CAT_ID":"46760","TIME_SYSTEM":"UTC","EPHEMERIS_TYPE":"0","PERIOD":"95.592","COUNTRY_CODE":"US","CLASSIFICATION_TYPE":"U","REF_FRAME":"TEME","CENTER_NAME":"EARTH","BSTAR":"-0.00006953100000","SITE":"AFETR","APOAPSIS":"548.612","ARG_OF_PERICENTER":"62.0613","MEAN_MOTION":"15.06401429","PERIAPSIS":"545.807","RA_OF_ASC_NODE":"336.9826","INCLINATION":"53.0542","RCS_SIZE":"LARGE","MEAN_ELEMENT_THEORY":"SGP4","REV_AT_EPOCH":"6680","MEAN_MOTION_DOT":"-0.00001317","OBJECT_NAME":"STARLINK-1896","OBJECT_ID":"2020-074X","LAUNCH_DATE":"2020-10-24"},{"APOAPSIS":"535.889","SITE":"AFETR","MEAN_MOTION":"15.10491139","ARG_OF_PERICENTER":"56.7383","INCLINATION":"53.0545","PERIAPSIS":"533.518","RA_OF_ASC_NODE":"337.4609","RCS_SIZE":"LARGE","REF_FRAME":"TEME","CENTER_NAME":"EARTH","BSTAR":"0.00002195600000","OBJECT_ID":"2020-074AA","OBJECT_NAME":"STARLINK-1902","LAUNCH_DATE":"2020-10-24","MEAN_ELEMENT_THEORY":"SGP4","MEAN_MOTION_DOT":"0.00000073","REV_AT_EPOCH":"6677","ECCENTRICITY":"0.00017150","FILE":"3265018","OBJECT_TYPE":"PAYLOAD","EPOCH":"2022-01-05T16:44:28.885920","ELEMENT_SET_NO":"999","TLE_LINE1":"1 46763U 20074AA  22005.69755655  .00000073  00000-0  21956-4 0  9993","TLE_LINE2":"2 46763  53.0545 337.4609 0001715  56.7383 303.3771 15.10491139 66772","DECAY_DATE":null,"GP_ID":"193285275","MEAN_MOTION_DDOT":"0.0000000000000","SEMIMAJOR_AXIS":"6912.838","EPHEMERIS_TYPE":"0","COUNTRY_CODE":"US","PERIOD":"95.333","CLASSIFICATION_TYPE":"U","NORAD_CAT_ID":"46763","MEAN_ANOMALY":"303.3771","TIME_SYSTEM":"UTC"},{"MEAN_ELEMENT_THEORY":"SGP4","MEAN_MOTION_DOT":"-0.00000241","REV_AT_EPOCH":"6680","OBJECT_ID":"2020-074AB","OBJECT_NAME":"STARLINK-1903","LAUNCH_DATE":"2020-10-24","REF_FRAME":"TEME","CENTER_NAME":"EARTH","BSTAR":"0.00000272550000","APOAPSIS":"548.393","SITE":"AFETR","MEAN_MOTION":"15.06391297","ARG_OF_PERICENTER":"59.5613","INCLINATION":"53.0546","PERIAPSIS":"546.088","RA_OF_ASC_NODE":"337.0091","RCS_SIZE":"LARGE","NORAD_CAT_ID":"46764","MEAN_ANOMALY":"300.5540","TIME_SYSTEM":"UTC","EPHEMERIS_TYPE":"0","COUNTRY_CODE":"US","PERIOD":"95.593","CLASSIFICATION_TYPE":"U","TLE_LINE1":"1 46764U 20074AB  22005.93488400 -.00000241  00000-0  27255-5 0  9999","TLE_LINE2":"2 46764  53.0546 337.0091 0001664  59.5613 300.5540 15.06391297 66801","DECAY_DATE":null,"SEMIMAJOR_AXIS":"6925.375","GP_ID":"193285524","MEAN_MOTION_DDOT":"0.0000000000000","ECCENTRICITY":"0.00016640","FILE":"3265018","EPOCH":"2022-01-05T22:26:13.977600","OBJECT_TYPE":"PAYLOAD","ELEMENT_SET_NO":"999"}];
